NORAD_CAT_ID,OBJECT_NAME,OBJECT_TYPE,EPOCH,MEAN_MOTION,ECCENTRICITY,INCLINATION,RA_OF_ASC_NODE,ARG_OF_PERICENTER,MEAN_ANOMALY,BSTAR,MEAN_MOTION_DOT,MEAN_MOTION_DDOT,TLE_LINE0,TLE_LINE1,TLE_LINE2,SEMIMAJOR_AXIS,PERIOD,APOGEE,PERIGEE,DECAYED
51467.0,STARLINK-3178,PAYLOAD,2024-05-27 04:47:11,15.08776403,0.000118,53.2172,323.7846,165.2079,194.8948,0.00038005,5.755e-05,0.0,0 STARLINK-3178,1 51467U 22010M   24148.19944183  .00005755  00000-0  38005-3 0  9997,2 51467  53.2172 323.7846 0001180 165.2079 194.8948 15.08776403128968,6918.075,95.442,540.756,539.123,0.0
51467.0,STARLINK-3178,PAYLOAD,2024-05-27 19:05:38,15.08835962,0.0001288,53.2185,321.0913,72.5456,287.5677,-0.00031454,-5.29e-05,0.0,0 STARLINK-3178,1 51467U 22010M   24148.79558864 -.00005290  00000-0 -31454-3 0  9997,2 51467  53.2185 321.0913 0001288  72.5456 287.5677 15.08835962129052,6917.893,95.438,540.649,538.867,0.0
51467.0,STARLINK-3178,PAYLOAD,2024-05-28 10:59:30,15.08831159,0.0001362,53.2174,318.117,131.9592,228.1517,-0.00010843,-2.013e-05,0.0,0 STARLINK-3178,1 51467U 22010M   24149.45798757 -.00002013  00000-0 -10843-3 0  9997,2 51467  53.2174 318.1170 0001362 131.9592 228.1517 15.08831159128356,6917.907,95.438,540.715,538.83,0.0
51467.0,STARLINK-3178,PAYLOAD,2024-05-28 18:56:25,15.08841984,0.0001372,53.2181,316.643,80.7179,279.3969,2.0823e-05,4.4e-07,0.0,0 STARLINK-3178,1 51467U 22010M   24149.78917881  .00000044  00000-0  20823-4 0  9994,2 51467  53.2181 316.6430 0001372  80.7179 279.3969 15.08841984129200,6917.874,95.437,540.688,538.79,0.0
51467.0,STARLINK-3178,PAYLOAD,2024-05-29 20:22:35,15.08844438,0.0001329,53.2188,311.8777,113.1502,246.9631,2.322e-05,8.2e-07,0.0,0 STARLINK-3178,1 51467U 22010M   24150.84902208  .00000082  00000-0  23220-4 0  9996,2 51467  53.2188 311.8777 0001329 113.1502 246.9631 15.08844438129361,6917.867,95.437,540.651,538.812,0.0
51467.0,STARLINK-3178,PAYLOAD,2024-05-30 20:13:22,15.08850094,0.000122,53.2178,307.4172,107.5203,252.5923,1.0939e-05,-1.14e-06,0.0,0 STARLINK-3178,1 51467U 22010M   24151.84261920 -.00000114  00000-0  10939-4 0  9996,2 51467  53.2178 307.4172 0001220 107.5203 252.5923 15.08850094128715,6917.85,95.437,540.559,538.871,0.0
51467.0,STARLINK-3178,PAYLOAD,2024-05-31 13:42:37,15.08842818,0.0001359,53.2163,304.1455,114.1748,245.9386,4.276e-05,3.93e-06,0.0,0 STARLINK-3178,1 51467U 22010M   24152.57126191  .00000393  00000-0  42760-4 0  9992,2 51467  53.2163 304.1455 0001359 114.1748 245.9386 15.08842818129623,6917.872,95.437,540.677,538.797,0.0
51467.0,STARLINK-3178,PAYLOAD,2024-05-31 16:53:23,15.08844712,0.0001233,53.2174,303.5514,93.8533,266.26,5.4933e-05,5.87e-06,0.0,0 STARLINK-3178,1 51467U 22010M   24152.70374126  .00000587  00000-0  54933-4 0  9990,2 51467  53.2174 303.5514 0001233  93.8533 266.2600 15.08844712128843,6917.866,95.437,540.584,538.878,0.0
51467.0,STARLINK-3178,PAYLOAD,2024-06-01 13:33:25,15.08831655,0.0001375,53.2186,299.6876,95.1771,264.9378,-5.6065e-05,-1.18e-05,0.0,0 STARLINK-3178,1 51467U 22010M   24153.56487566 -.00001180  00000-0 -56065-4 0  9998,2 51467  53.2186 299.6876 0001375  95.1771 264.9378 15.08831655129770,6917.906,95.438,540.722,538.82,0.0
51467.0,STARLINK-3178,PAYLOAD,2024-06-02 02:16:29,15.08840478,0.0001263,53.2176,297.3104,85.9886,274.1251,-4.3352e-05,-9.78e-06,0.0,0 STARLINK-3178,1 51467U 22010M   24154.09479121 -.00000978  00000-0 -43352-4 0  9994,2 51467  53.2176 297.3104 0001263  85.9886 274.1251 15.08840478129853,6917.879,95.438,540.618,538.87,0.0
51467.0,STARLINK-3178,PAYLOAD,2024-06-02 18:10:20,15.08845622,0.0001166,53.2166,294.3357,87.0503,273.0623,0.0001015,1.328e-05,0.0,0 STARLINK-3178,1 51467U 22010M   24154.75718451  .00001328  00000-0  10150-3 0  9996,2 51467  53.2166 294.3357 0001166  87.0503 273.0623 15.08845622129958,6917.863,95.437,540.535,538.922,0.0
51467.0,STARLINK-3178,PAYLOAD,2024-06-03 02:07:16,15.08846469,0.000118,53.2167,292.846,69.5845,290.5274,6.2639e-05,7.09e-06,0.0,0 STARLINK-3178,1 51467U 22010M   24155.08838356  .00000709  00000-0  62639-4 0  9992,2 51467  53.2167 292.8460 0001180  69.5845 290.5274 15.08846469129201,6917.861,95.437,540.542,538.909,0.0
51467.0,STARLINK-3178,PAYLOAD,2024-06-03 18:01:09,15.08826277,0.0001267,53.217,289.875,76.7178,283.3955,0.00010625,1.403e-05,0.0,0 STARLINK-3178,1 51467U 22010M   24155.75080008  .00001403  00000-0  10625-3 0  9998,2 51467  53.2170 289.8750 0001267  76.7178 283.3955 15.08826277130100,6917.922,95.438,540.664,538.911,0.0
51467.0,STARLINK-3178,PAYLOAD,2024-06-04 01:58:04,15.08836564,0.0001487,53.2164,288.3878,77.2607,282.8551,4.8268e-05,4.8e-06,0.0,0 STARLINK-3178,1 51467U 22010M   24156.08199711  .00000480  00000-0  48268-4 0  9996,2 51467  53.2164 288.3878 0001487  77.2607 282.8551 15.08836564130156,6917.891,95.438,540.785,538.727,0.0
51467.0,STARLINK-3178,PAYLOAD,2024-06-04 08:19:37,15.08841588,0.0001461,53.2172,287.2003,81.0741,279.0417,-6.2583e-06,-3.88e-06,0.0,0 STARLINK-3178,1 51467U 22010M   24156.34695602 -.00000388  00000-0 -62583-5 0  9991,2 51467  53.2172 287.2003 0001461  81.0741 279.0417 15.08841588129392,6917.876,95.437,540.751,538.73,0.0
51467.0,STARLINK-3178,PAYLOAD,2024-06-04 19:27:18,15.08849758,0.000286,53.217,285.1201,78.1565,281.9747,0.00012387,1.684e-05,0.0,0 STARLINK-3178,1 51467U 22010M   24156.81062894  .00001684  00000-0  12387-3 0  9997,2 51467  53.2170 285.1201 0002860  78.1565 281.9747 15.08849758130265,6917.851,95.437,541.694,537.737,0.0
51467.0,STARLINK-3178,PAYLOAD,2024-06-05 01:48:52,15.08832259,0.0003111,53.2175,283.9289,81.8961,278.2384,-3.9175e-05,-9.12e-06,0.0,0 STARLINK-3178,1 51467U 22010M   24157.07560538 -.00000912  00000-0 -39175-4 0  9994,2 51467  53.2175 283.9289 0003111  81.8961 278.2384 15.08832259130302,6917.904,95.438,541.921,537.617,0.0
51467.0,STARLINK-3178,PAYLOAD,2024-06-05 14:31:56,15.08834626,0.0001707,53.213,281.5507,84.773,275.3457,4.7431e-05,4.67e-06,0.0,0 STARLINK-3178,1 51467U 22010M   24157.60551771  .00000467  00000-0  47431-4 0  9999,2 51467  53.2130 281.5507 0001707  84.7730 275.3457 15.08834626129582,6917.897,95.438,540.943,538.581,0.0
51467.0,STARLINK-3178,PAYLOAD,2024-06-06 14:22:43,15.08840431,0.0001421,53.2143,277.0884,84.8777,275.2377,3.3086e-05,2.39e-06,0.0,0 STARLINK-3178,1 51467U 22010M   24158.59911602  .00000239  00000-0  33086-4 0  9999,2 51467  53.2143 277.0884 0001421  84.8777 275.2377 15.08840431129737,6917.879,95.438,540.727,538.761,0.0
51467.0,STARLINK-3178,PAYLOAD,2024-06-06 17:33:29,15.08843686,0.0002294,53.2143,276.4929,100.3729,259.7522,7.5969e-05,9.21e-06,0.0,0 STARLINK-3178,1 51467U 22010M   24158.73159315  .00000921  00000-0  75969-4 0  9994,2 51467  53.2143 276.4929 0002294 100.3729 259.7522 15.08843686130556,6917.869,95.437,541.321,538.147,0.0
51467.0,STARLINK-3178,PAYLOAD,2024-06-07 07:51:58,15.08835077,0.0002111,53.212,273.8165,102.2134,257.9094,0.00012227,1.658e-05,0.0,0 STARLINK-3178,1 51467U 22010M   24159.32775748  .00001658  00000-0  12227-3 0  9999,2 51467  53.2120 273.8165 0002111 102.2134 257.9094 15.08835077130642,6917.895,95.438,541.221,538.3,0.0
51467.0,STARLINK-3178,PAYLOAD,2024-06-07 14:13:30,15.08841927,0.0001457,53.2125,272.626,97.074,263.0418,0.00017173,2.446e-05,0.0,0 STARLINK-3178,1 51467U 22010M   24159.59271054  .00002446  00000-0  17173-3 0  9990,2 51467  53.2125 272.6260 0001457  97.0740 263.0418 15.08841927129889,6917.874,95.437,540.747,538.732,0.0
51467.0,STARLINK-3178,PAYLOAD,2024-06-08 12:28:53,15.08847207,0.0001324,53.2162,268.4646,88.1932,271.9212,6.9651e-05,8.21e-06,0.0,0 STARLINK-3178,1 51467U 22010M   24160.52006901  .00000821  00000-0  69651-4 0  9996,2 51467  53.2162 268.4646 0001324  88.1932 271.9212 15.08847207130023,6917.858,95.437,540.639,538.807,0.0
51467.0,STARLINK-3178,PAYLOAD,2024-06-08 17:15:03,15.08849038,0.0001367,53.2165,267.5738,85.0796,275.0352,6.7877e-05,7.93e-06,0.0,0 STARLINK-3178,1 51467U 22010M   24160.71878695  .00000793  00000-0  67877-4 0  9990,2 51467  53.2165 267.5738 0001367  85.0796 275.0352 15.08849038130854,6917.853,95.437,540.663,538.772,0.0
51467.0,STARLINK-3178,PAYLOAD,2024-06-08 23:36:37,15.08833439,0.0002441,53.217,266.3842,77.5476,282.5789,-8.4583e-06,-4.23e-06,0.0,0 STARLINK-3178,1 51467U 22010M   24160.98376199 -.00000423  00000-0 -84583-5 0  9997,2 51467  53.2170 266.3842 0002441  77.5476 282.5789 15.08833439130897,6917.9,95.438,541.454,538.077,0.0
51467.0,STARLINK-3178,PAYLOAD,2024-06-09 12:19:42,15.08824778,0.0001332,53.2186,264.009,88.1774,271.937,-0.00010063,-1.888e-05,0.0,0 STARLINK-3178,1 51467U 22010M   24161.51369132 -.00001888  00000-0 -10063-3 0  9992,2 51467  53.2186 264.0090 0001332  88.1774 271.9370 15.08824778130974,6917.927,95.439,540.713,538.87,0.0
51467.0,STARLINK-3178,PAYLOAD,2024-06-09 23:27:24,15.08832652,0.0001226,53.2176,261.9249,77.2241,282.8888,-1.9388e-06,-3.19e-06,0.0,0 STARLINK-3178,1 51467U 22010M   24161.97736557 -.00000319  00000-0 -19388-5 0  9990,2 51467  53.2176 261.9249 0001226  77.2241 282.8888 15.08832652131049,6917.903,95.438,540.616,538.92,0.0
51467.0,STARLINK-3178,PAYLOAD,2024-06-10 13:45:51,15.0884889,0.0001248,53.2174,259.251,89.6304,270.4831,0.00013372,1.841e-05,0.0,0 STARLINK-3178,1 51467U 22010M   24162.57351390  .00001841  00000-0  13372-3 0  9999,2 51467  53.2174 259.2510 0001248  89.6304 270.4831 15.08848890131131,6917.853,95.437,540.582,538.855,0.0
51467.0,STARLINK-3178,PAYLOAD,2024-06-11 05:39:43,15.08836774,0.0001876,53.218,256.2769,82.0354,278.0851,0.00019184,2.766e-05,0.0,0 STARLINK-3178,1 51467U 22010M   24163.23592315  .00002766  00000-0  19184-3 0  9991,2 51467  53.2180 256.2769 0001876  82.0354 278.0851 15.08836774131235,6917.89,95.438,541.053,538.457,0.0
51467.0,STARLINK-3178,PAYLOAD,2024-06-11 13:36:39,15.08841381,0.0001488,53.2173,254.7893,83.2694,276.8467,0.00022514,3.297e-05,0.0,0 STARLINK-3178,1 51467U 22010M   24163.56712158  .00003297  00000-0  22514-3 0  9997,2 51467  53.2173 254.7893 0001488  83.2694 276.8467 15.08841381130482,6917.876,95.437,540.771,538.712,0.0
